OBJECT_NAME,OBJECT_ID,EPOCH,MEAN_MOTION,ECCENTRICITY,INCLINATION,RA_OF_ASC_NODE,ARG_OF_PERICENTER,MEAN_ANOMALY,EPHEMERIS_TYPE,CLASSIFICATION_TYPE,NORAD_CAT_ID,ELEMENT_SET_NO,REV_AT_EPOCH,BSTAR,MEAN_MOTION_DOT,MEAN_MOTION_DDOT
ALOS-2,2014-029A,2026-07-20T18:03:53.292960,14.79473928,.00015881,97.9225,298.4370,91.3293,268.8100,0,U,39766,999,65654,.82710118E-4,.566E-5,0
KAZEOSAT 2,2014-033A,2026-07-20T23:27:06.178176,14.85504825,.00078261,97.5397,39.8016,198.0039,162.0901,0,U,40010,999,65397,.72432071E-4,.575E-5,0
HODOYOSHI-4,2014-033B,2026-07-20T22:08:05.974368,14.88194999,.0023206,97.5465,25.1190,190.1026,169.9728,0,U,40011,999,65382,.6462508E-4,.546E-5,0
DEIMOS-2,2014-033D,2026-07-20T22:39:45.953568,14.93808143,.00015052,97.5783,75.2402,104.1112,256.0275,0,U,40013,999,64276,.1192406E-3,.121E-4,0
HODOYOSHI-3,2014-033F,2026-07-20T22:24:23.442624,14.85444729,.00314614,97.6454,3.6234,242.1285,117.6742,0,U,40015,999,65263,.81152776E-4,.652E-5,0
SPOT 7,2014-034A,2026-07-20T22:42:44.426592,14.60982879,.00016603,98.0607,263.5653,94.4247,265.7143,0,U,40053,999,64206,.6242522E-5,-.15E-6,0
SKYSAT-B,2014-037D,2026-07-20T21:08:04.780032,14.88100507,.00059747,98.3858,162.7722,155.2659,204.8843,0,U,40072,999,65097,.87855397E-4,.747E-5,0
WORLDVIEW-3 (WV-3),2014-048A,2026-07-20T22:11:01.213440,14.85069654,.00017153,97.8551,276.2898,147.4126,212.7195,0,U,40115,999,64691,.62400673E-4,.48E-5,0
GAOFEN-2,2014-049A,2026-07-20T23:02:05.257248,14.80932473,.00086027,98.0089,266.1320,118.5578,241.6501,0,U,40118,999,64423,.63965541E-4,.441E-5,0
YAOGAN-21,2014-053A,2026-07-20T22:03:41.474592,15.26803140,.00069981,97.1458,240.7133,347.4944,12.6121,0,U,40143,999,66010,.14615379E-3,.3782E-4,0
YAOGAN-22,2014-063A,2026-07-20T21:01:51.865536,13.15531700,.00069103,100.7770,353.7152,113.5244,246.6594,0,U,40275,999,56424,.3068543E-5,-.46E-6,0
ASNARO,2014-070A,2026-07-20T22:33:02.278944,15.19426172,.00046274,97.3435,277.1448,74.9317,285.2430,0,U,40298,999,64913,.20205456E-3,.4214E-4,0
YAOGAN-24,2014-072A,2026-07-20T21:45:59.683392,14.76123673,.00150518,98.1536,339.5335,151.8126,208.3901,0,U,40310,999,62869,.92016728E-4,.583E-5,0
CBERS 4,2014-079A,2026-07-20T23:34:01.019136,14.35516559,.00005922,98.3510,257.7500,70.2649,289.8601,0,U,40336,999,60880,-.5889003E-5,-.59E-6,0
YAOGAN-26,2014-088A,2026-07-20T22:35:02.298912,15.48595496,.00010707,97.0661,201.3916,288.8222,71.2913,0,U,40362,999,64292,.26720184E-3,.14174E-3,0
SMAP,2015-003A,2026-07-20T22:13:14.437056,14.63392106,.00016317,98.1286,208.5441,92.8977,267.2412,0,U,40376,999,61255,.54457657E-4,.235E-5,0
KOMPSAT-3A,2015-014A,2026-07-20T23:09:32.732352,15.55671924,.00554357,97.6903,195.8423,55.2315,305.4139,0,U,40536,999,62706,.3628184E-3,.26651E-3,0
SENTINEL-2A,2015-028A,2026-07-20T22:06:14.576256,14.30814477,.0001319,98.5669,276.2918,95.4508,264.6825,0,U,40697,999,57855,-.64760082E-4,-.213E-5,0
GAOFEN-8,2015-030A,2026-07-20T22:14:39.367392,15.47090234,.00097722,97.6901,37.3504,77.7112,282.5231,0,U,40701,999,61666,.36483105E-3,.18429E-3,0
CARBONITE 1 (CBNT-1),2015-032D,2026-07-20T23:19:13.983168,14.83675468,.00143885,97.6530,18.6281,177.6844,182.4440,0,U,40718,999,59435,.70518085E-4,.532E-5,0
YAOGAN-27,2015-040A,2026-07-20T22:24:42.582816,13.16072783,.0008749,100.1180,186.8550,132.6221,227.5632,0,U,40878,999,52210,.87229404E-3,.289E-5,0
GAOFEN-9 01,2015-047A,2026-07-20T22:27:18.772416,14.82941840,.00280488,97.6263,236.0953,32.3094,327.9831,0,U,40894,999,58519,.78383025E-4,.589E-5,0
YAOGAN-28,2015-064A,2026-07-20T22:13:16.673952,15.27804368,.00119479,97.3115,339.5173,75.4325,284.8239,0,U,41026,999,59583,.17554378E-3,.4702E-4,0
YAOGAN-29,2015-069A,2026-07-20T23:29:47.423904,14.83110236,.00001264,98.0020,230.6633,29.0162,331.1059,0,U,41038,999,57563,.78518789E-4,.586E-5,0
KENT RIDGE 1,2015-077B,2026-07-20T19:42:16.708608,15.23302681,.00082666,14.9808,15.8171,354.2128,5.8098,0,U,41167,999,58623,.71463069E-4,.2508E-4,0
GAOFEN-4,2015-083A,2026-07-20T06:47:15.871776,1.00270897,.00041678,0.4407,83.8785,121.8602,299.8332,0,U,41194,999,3886,0,-.337E-5,0
JASON-3,2016-002A,2026-07-20T22:40:04.694592,12.87628888,.00081319,66.0416,54.8643,270.3488,89.6599,0,U,41240,999,49159,.21483376E-4,-.57E-6,0
SENTINEL-3A,2016-011A,2026-07-20T22:46:34.661856,14.26740781,.00013091,98.6232,268.8448,88.9679,271.1651,0,U,41335,999,54287,.32106724E-4,.34E-6,0
ZIYUAN 3-02 (ZY 3-02),2016-033A,2026-07-20T22:21:22.845888,15.21468621,.00146819,97.3819,277.0573,165.3259,194.8406,0,U,41556,999,56311,.15884275E-3,.3511E-4,0
CARTOSAT-2C,2016-040A,2026-07-20T23:32:00.390912,15.19287546,.00090034,97.4459,261.4903,26.9781,333.1920,0,U,41599,999,55884,.12882604E-3,.2652E-4,0
